[{"OBJECT_NAME":"OBJECT B","OBJECT_ID":"2025-284B","EPOCH":"2026-03-09T22:41:21.082560","MEAN_MOTION":13.97295842,"ECCENTRICITY":0.00117879,"INCLINATION":80.3988,"RA_OF_ASC_NODE":32.8503,"ARG_OF_PERICENTER":139.3103,"MEAN_ANOMALY":220.8941,"EPHEMERIS_TYPE":0,"CLASSIFICATION_TYPE":"U","NORAD_CAT_ID":66914,"ELEMENT_SET_NO":999,"REV_AT_EPOCH":1362,"BSTAR":0.00013516882,"MEAN_MOTION_DOT":1.99e-6,"MEAN_MOTION_DDOT":0},{"OBJECT_NAME":"MOMO-1B (MOS-1B)","OBJECT_ID":"1990-013A","EPOCH":"2026-03-09T17:23:37.810752","MEAN_MOTION":13.96048175,"ECCENTRICITY":0.00064804,"INCLINATION":99.2309,"RA_OF_ASC_NODE":129.6902,"ARG_OF_PERICENTER":98.3421,"MEAN_ANOMALY":261.8475,"EPHEMERIS_TYPE":0,"CLASSIFICATION_TYPE":"U","NORAD_CAT_ID":20478,"ELEMENT_SET_NO":999,"REV_AT_EPOCH":75815,"BSTAR":0.00017284589,"MEAN_MOTION_DOT":1.92e-6,"MEAN_MOTION_DDOT":0}]
